CCSDS_OMM_VERS = 2.0
CREATION_DATE  = 
ORIGINATOR     = 

OBJECT_NAME    = KUIPER-00188
OBJECT_ID      = 2025-301K
CENTER_NAME    = EARTH
REF_FRAME      = TEME
TIME_SYSTEM    = UTC
MEAN_ELEMENT_THEORY = SGP/SGP4

EPOCH          = 2025-12-29T13:37:07.026816
MEAN_MOTION    = 15.35124259
ECCENTRICITY   = .00073899
INCLINATION    = 51.8707
RA_OF_ASC_NODE = 44.0350
ARG_OF_PERICENTER = 143.8309
MEAN_ANOMALY   = 216.3178

EPHEMERIS_TYPE = 0
CLASSIFICATION_TYPE = U
NORAD_CAT_ID   = 67142
ELEMENT_SET_NO = 999
REV_AT_EPOCH   = 295
BSTAR          = .11858455E-2
MEAN_MOTION_DOT = .40912E-3
MEAN_MOTION_DDOT = 0

CCSDS_OMM_VERS = 2.0
CREATION_DATE  = 
ORIGINATOR     = 

OBJECT_NAME    = KUIPER-00191
OBJECT_ID      = 2025-301L
CENTER_NAME    = EARTH
REF_FRAME      = TEME
TIME_SYSTEM    = UTC
MEAN_ELEMENT_THEORY = SGP/SGP4

EPOCH          = 2025-12-29T13:34:16.128480
MEAN_MOTION    = 15.35290808
ECCENTRICITY   = .00065846
INCLINATION    = 51.8680
RA_OF_ASC_NODE = 44.0236
ARG_OF_PERICENTER = 139.8160
MEAN_ANOMALY   = 220.3314

EPHEMERIS_TYPE = 0
CLASSIFICATION_TYPE = U
NORAD_CAT_ID   = 67143
ELEMENT_SET_NO = 999
REV_AT_EPOCH   = 298
BSTAR          = .1240749E-2
MEAN_MOTION_DOT = .43059E-3
MEAN_MOTION_DDOT = 0

CCSDS_OMM_VERS = 2.0
CREATION_DATE  = 
ORIGINATOR     = 

OBJECT_NAME    = KUIPER-00196
OBJECT_ID      = 2025-301M
CENTER_NAME    = EARTH
REF_FRAME      = TEME
TIME_SYSTEM    = UTC
MEAN_ELEMENT_THEORY = SGP/SGP4

EPOCH          = 2025-12-29T13:23:22.801056
MEAN_MOTION    = 15.36118914
ECCENTRICITY   = .0003997
INCLINATION    = 51.8731
RA_OF_ASC_NODE = 43.9719
ARG_OF_PERICENTER = 101.3802
MEAN_ANOMALY   = 258.7634

EPHEMERIS_TYPE = 0
CLASSIFICATION_TYPE = U
NORAD_CAT_ID   = 67144
ELEMENT_SET_NO = 999
REV_AT_EPOCH   = 295
BSTAR          = .15785594E-2
MEAN_MOTION_DOT = .56448E-3
MEAN_MOTION_DDOT = 0

CCSDS_OMM_VERS = 2.0
CREATION_DATE  = 
ORIGINATOR     = 

OBJECT_NAME    = KUIPER-00204
OBJECT_ID      = 2025-301N
CENTER_NAME    = EARTH
REF_FRAME      = TEME
TIME_SYSTEM    = UTC
MEAN_ELEMENT_THEORY = SGP/SGP4

EPOCH          = 2025-12-29T11:43:13.255104
MEAN_MOTION    = 15.36673011
ECCENTRICITY   = .00021838
INCLINATION    = 51.8742
RA_OF_ASC_NODE = 44.2500
ARG_OF_PERICENTER = 82.8309
MEAN_ANOMALY   = 277.2926

EPHEMERIS_TYPE = 0
CLASSIFICATION_TYPE = U
NORAD_CAT_ID   = 67145
ELEMENT_SET_NO = 999
REV_AT_EPOCH   = 305
BSTAR          = .68732977E-3
MEAN_MOTION_DOT = .24695E-3
MEAN_MOTION_DDOT = 0

CCSDS_OMM_VERS = 2.0
CREATION_DATE  = 
ORIGINATOR     = 

OBJECT_NAME    = KUIPER-00210
OBJECT_ID      = 2025-301P
CENTER_NAME    = EARTH
REF_FRAME      = TEME
TIME_SYSTEM    = UTC
MEAN_ELEMENT_THEORY = SGP/SGP4

EPOCH          = 2025-12-29T13:46:44.742144
MEAN_MOTION    = 15.34363781
ECCENTRICITY   = .00103198
INCLINATION    = 51.8617
RA_OF_ASC_NODE = 44.0744
ARG_OF_PERICENTER = 159.4792
MEAN_ANOMALY   = 200.6610

EPHEMERIS_TYPE = 0
CLASSIFICATION_TYPE = U
NORAD_CAT_ID   = 67146
ELEMENT_SET_NO = 999
REV_AT_EPOCH   = 312
BSTAR          = .12531611E-2
MEAN_MOTION_DOT = .42256E-3
MEAN_MOTION_DDOT = 0

CCSDS_OMM_VERS = 2.0
CREATION_DATE  = 
ORIGINATOR     = 

OBJECT_NAME    = KUIPER-00221
OBJECT_ID      = 2025-301Q
CENTER_NAME    = EARTH
REF_FRAME      = TEME
TIME_SYSTEM    = UTC
MEAN_ELEMENT_THEORY = SGP/SGP4

EPOCH          = 2025-12-29T13:27:13.951296
MEAN_MOTION    = 15.35834556
ECCENTRICITY   = .00049449
INCLINATION    = 51.8719
RA_OF_ASC_NODE = 43.9909
ARG_OF_PERICENTER = 121.8295
MEAN_ANOMALY   = 238.3173

EPHEMERIS_TYPE = 0
CLASSIFICATION_TYPE = U
NORAD_CAT_ID   = 67147
ELEMENT_SET_NO = 999
REV_AT_EPOCH   = 295
BSTAR          = .13833766E-2
MEAN_MOTION_DOT = .48926E-3
MEAN_MOTION_DDOT = 0

CCSDS_OMM_VERS = 2.0
CREATION_DATE  = 
ORIGINATOR     = 

OBJECT_NAME    = KUIPER-00232
OBJECT_ID      = 2025-301R
CENTER_NAME    = EARTH
REF_FRAME      = TEME
TIME_SYSTEM    = UTC
MEAN_ELEMENT_THEORY = SGP/SGP4

EPOCH          = 2025-12-29T13:14:44.710368
MEAN_MOTION    = 15.36844735
ECCENTRICITY   = .00018382
INCLINATION    = 51.8736
RA_OF_ASC_NODE = 43.9302
ARG_OF_PERICENTER = 59.5846
MEAN_ANOMALY   = 300.5322

EPHEMERIS_TYPE = 0
CLASSIFICATION_TYPE = U
NORAD_CAT_ID   = 67148
ELEMENT_SET_NO = 999
REV_AT_EPOCH   = 295
BSTAR          = .14670928E-2
MEAN_MOTION_DOT = .53653E-3
MEAN_MOTION_DDOT = 0

CCSDS_OMM_VERS = 2.0
CREATION_DATE  = 
ORIGINATOR     = 

OBJECT_NAME    = KUIPER-00241
OBJECT_ID      = 2025-301S
CENTER_NAME    = EARTH
REF_FRAME      = TEME
TIME_SYSTEM    = UTC
MEAN_ELEMENT_THEORY = SGP/SGP4

EPOCH          = 2025-12-29T13:20:35.115072
MEAN_MOTION    = 15.36398813
ECCENTRICITY   = .00029129
INCLINATION    = 51.8741
RA_OF_ASC_NODE = 43.9563
ARG_OF_PERICENTER = 103.2810
MEAN_ANOMALY   = 256.8501

EPHEMERIS_TYPE = 0
CLASSIFICATION_TYPE = U
NORAD_CAT_ID   = 67149
ELEMENT_SET_NO = 999
REV_AT_EPOCH   = 328
BSTAR          = .10666874E-2
MEAN_MOTION_DOT = .38268E-3
MEAN_MOTION_DDOT = 0

CCSDS_OMM_VERS = 2.0
CREATION_DATE  = 
ORIGINATOR     = 

OBJECT_NAME    = KUIPER-00245
OBJECT_ID      = 2025-301T
CENTER_NAME    = EARTH
REF_FRAME      = TEME
TIME_SYSTEM    = UTC
MEAN_ELEMENT_THEORY = SGP/SGP4

EPOCH          = 2025-12-29T13:28:17.270400
MEAN_MOTION    = 15.35799551
ECCENTRICITY   = .00051416
INCLINATION    = 51.8726
RA_OF_ASC_NODE = 43.9946
ARG_OF_PERICENTER = 128.5247
MEAN_ANOMALY   = 231.6201

EPHEMERIS_TYPE = 0
CLASSIFICATION_TYPE = U
NORAD_CAT_ID   = 67150
ELEMENT_SET_NO = 999
REV_AT_EPOCH   = 295
BSTAR          = .11946295E-2
MEAN_MOTION_DOT = .42114E-3
MEAN_MOTION_DDOT = 0

CCSDS_OMM_VERS = 2.0
CREATION_DATE  = 
ORIGINATOR     = 

OBJECT_NAME    = KUIPER-00246
OBJECT_ID      = 2025-301U
CENTER_NAME    = EARTH
REF_FRAME      = TEME
TIME_SYSTEM    = UTC
MEAN_ELEMENT_THEORY = SGP/SGP4

EPOCH          = 2025-12-29T13:24:20.943936
MEAN_MOTION    = 15.36087859
ECCENTRICITY   = .00040861
INCLINATION    = 51.8738
RA_OF_ASC_NODE = 43.9751
ARG_OF_PERICENTER = 119.1851
MEAN_ANOMALY   = 240.9544

EPHEMERIS_TYPE = 0
CLASSIFICATION_TYPE = U
NORAD_CAT_ID   = 67151
ELEMENT_SET_NO = 999
REV_AT_EPOCH   = 297
BSTAR          = .12355536E-2
MEAN_MOTION_DOT = .43982E-3
MEAN_MOTION_DDOT = 0

CCSDS_OMM_VERS = 2.0
CREATION_DATE  = 
ORIGINATOR     = 

OBJECT_NAME    = KUIPER-00247
OBJECT_ID      = 2025-301V
CENTER_NAME    = EARTH
REF_FRAME      = TEME
TIME_SYSTEM    = UTC
MEAN_ELEMENT_THEORY = SGP/SGP4

EPOCH          = 2025-12-29T09:07:34.896864
MEAN_MOTION    = 15.34160986
ECCENTRICITY   = .00110377
INCLINATION    = 51.8645
RA_OF_ASC_NODE = 45.0264
ARG_OF_PERICENTER = 162.7621
MEAN_ANOMALY   = 197.3741

EPHEMERIS_TYPE = 0
CLASSIFICATION_TYPE = U
NORAD_CAT_ID   = 67152
ELEMENT_SET_NO = 999
REV_AT_EPOCH   = 292
BSTAR          = .90176315E-3
MEAN_MOTION_DOT = .30062E-3
MEAN_MOTION_DDOT = 0

CCSDS_OMM_VERS = 2.0
CREATION_DATE  = 
ORIGINATOR     = 

OBJECT_NAME    = KUIPER-00248
OBJECT_ID      = 2025-301W
CENTER_NAME    = EARTH
REF_FRAME      = TEME
TIME_SYSTEM    = UTC
MEAN_ELEMENT_THEORY = SGP/SGP4

EPOCH          = 2025-12-29T12:06:50.796576
MEAN_MOTION    = 15.34864284
ECCENTRICITY   = .00085882
INCLINATION    = 51.8689
RA_OF_ASC_NODE = 44.3645
ARG_OF_PERICENTER = 150.0018
MEAN_ANOMALY   = 210.1461

EPHEMERIS_TYPE = 0
CLASSIFICATION_TYPE = U
NORAD_CAT_ID   = 67153
ELEMENT_SET_NO = 999
REV_AT_EPOCH   = 311
BSTAR          = .12671325E-2
MEAN_MOTION_DOT = .43407E-3
MEAN_MOTION_DDOT = 0

CCSDS_OMM_VERS = 2.0
CREATION_DATE  = 
ORIGINATOR     = 

OBJECT_NAME    = KUIPER-00249
OBJECT_ID      = 2025-301X
CENTER_NAME    = EARTH
REF_FRAME      = TEME
TIME_SYSTEM    = UTC
MEAN_ELEMENT_THEORY = SGP/SGP4

EPOCH          = 2025-12-29T13:38:15.850464
MEAN_MOTION    = 15.34993462
ECCENTRICITY   = .00079932
INCLINATION    = 51.8663
RA_OF_ASC_NODE = 44.0408
ARG_OF_PERICENTER = 145.7556
MEAN_ANOMALY   = 214.3946

EPHEMERIS_TYPE = 0
CLASSIFICATION_TYPE = U
NORAD_CAT_ID   = 67154
ELEMENT_SET_NO = 999
REV_AT_EPOCH   = 295
BSTAR          = .12301907E-2
MEAN_MOTION_DOT = .42292E-3
MEAN_MOTION_DDOT = 0

CCSDS_OMM_VERS = 2.0
CREATION_DATE  = 
ORIGINATOR     = 

OBJECT_NAME    = KUIPER-00250
OBJECT_ID      = 2025-301Y
CENTER_NAME    = EARTH
REF_FRAME      = TEME
TIME_SYSTEM    = UTC
MEAN_ELEMENT_THEORY = SGP/SGP4

EPOCH          = 2025-12-29T08:50:54.729600
MEAN_MOTION    = 15.35525487
ECCENTRICITY   = .00062318
INCLINATION    = 51.8721
RA_OF_ASC_NODE = 44.9543
ARG_OF_PERICENTER = 133.7967
MEAN_ANOMALY   = 226.3535

EPHEMERIS_TYPE = 0
CLASSIFICATION_TYPE = U
NORAD_CAT_ID   = 67155
ELEMENT_SET_NO = 999
REV_AT_EPOCH   = 295
BSTAR          = .12310153E-2
MEAN_MOTION_DOT = .43039E-3
MEAN_MOTION_DDOT = 0

CCSDS_OMM_VERS = 2.0
CREATION_DATE  = 
ORIGINATOR     = 

OBJECT_NAME    = KUIPER-00251
OBJECT_ID      = 2025-301Z
CENTER_NAME    = EARTH
REF_FRAME      = TEME
TIME_SYSTEM    = UTC
MEAN_ELEMENT_THEORY = SGP/SGP4

EPOCH          = 2025-12-29T10:31:57.351072
MEAN_MOTION    = 15.34955370
ECCENTRICITY   = .00088007
INCLINATION    = 51.8678
RA_OF_ASC_NODE = 44.6734
ARG_OF_PERICENTER = 145.7551
MEAN_ANOMALY   = 214.4003

EPHEMERIS_TYPE = 0
CLASSIFICATION_TYPE = U
NORAD_CAT_ID   = 67156
ELEMENT_SET_NO = 999
REV_AT_EPOCH   = 312
BSTAR          = .11889512E-2
MEAN_MOTION_DOT = .40812E-3
MEAN_MOTION_DDOT = 0

